STARLINK-3953           
1 52559U 22051AC  24033.06683763  .00001376  00000+0  10451-3 0  9997
2 52559  53.2190 320.8117 0001808  71.3979 288.7210 15.08849395 95849
STARLINK-3956           
1 52560U 22051AD  24033.11834476  .00000779  00000+0  67033-4 0  9999
2 52560  53.2203 320.3914 0002267  57.6362 302.4849 15.08841068 95851
STARLINK-3955           
1 52561U 22051AE  24033.10039581 -.00000982  00000+0 -43637-4 0  9995
2 52561  53.2186 335.4795 0001410 103.9866 256.1284 15.08840305 95647
STARLINK-3957           
1 52562U 22051AF  24033.11097887 -.00000121  00000+0  10492-4 0  9997
2 52562  53.2195 320.4238 0002003  84.6537 275.4684 15.08850529 95853
STARLINK-3942           
1 52563U 22051AG  24033.10408224  .00001634  00000+0  12071-3 0  9991
2 52563  53.2188 335.4618 0001744  77.9626 282.1562 15.08840495 95647
STARLINK-3959           
1 52564U 22051AH  24033.09768337  .00000584  00000+0  54813-4 0  9998
2 52564  53.2196 335.4989 0001820  69.4749 290.6438 15.08837332 95647
STARLINK-3911           
1 52565U 22051AJ  24033.77706121  .00001626  00000+0  12021-3 0  9999
2 52565  53.2187 317.4401 0001710  71.3164 288.8013 15.08843494 96025
STARLINK-3938           
1 52566U 22051AK  24033.14088099  .00000594  00000+0  55427-4 0  9999
2 52566  53.2197 335.2921 0001700  93.6427 266.4760 15.08841712 95650
STARLINK-3929           
1 52567U 22051AL  24033.10729752  .00000468  00000+0  47510-4 0  9998
2 52567  53.2191 320.4474 0001516  95.8575 264.2590 15.08844588 95850
STARLINK-3930           
1 52568U 22051AM  24033.03001881  .00001928  00000+0  13920-3 0  9996
2 52568  53.2194 320.7914 0001711 107.9307 252.1872 15.08839027 95841
STARLINK-3927           
1 52569U 22051AN  24033.10361515  .00001531  00000+0  11424-3 0  9995
2 52569  53.2187 320.4610 0001416  95.7288 264.3866 15.08845766 95854
STARLINK-3924           
1 52570U 22051AP  24033.82122428 -.00000670  00000+0 -23991-4 0  9992
2 52570  53.2188 317.2408 0001686  93.8324 266.2861 15.08841766 96038
STARLINK-3901           
1 52574U 22051AQ  24033.09994268  .00006262  00000+0  41142-3 0  9992
2 52574  53.2189 320.4785 0001575 103.2606 256.8562 15.08816851 95920
STARLINK-3920           
1 52575U 22051AR  24033.81754515  .00001107  00000+0  87643-4 0  9992
2 52575  53.2201 317.2568 0001790  93.5941 266.5255 15.08833343 96036
STARLINK-3932           
1 52576U 22051AS  24033.81114124  .00000488  00000+0  48748-4 0  9993
2 52576  53.2202 317.2859 0001814  82.6926 277.4272 15.08833745 96036
STARLINK-3836           
1 52577U 22051AT  24033.13352149  .00000723  00000+0  63550-4 0  9990
2 52577  53.2198 335.3255 0001546  99.8774 260.2393 15.08837661 95657
STARLINK-3833           
1 52578U 22051AU  24033.07096113  .00000976  00000+0  79421-4 0  9994
2 52578  53.2195 335.6055 0001521 102.3875 257.7288 15.08836697 95642
STARLINK-3893           
1 52579U 22051AV  24033.78856083  .00000405  00000+0  43543-4 0  9996
2 52579  53.2185 332.3882 0001305  99.8573 260.2567 15.08836974 95826
STARLINK-3919           
1 52580U 22051AW  24033.13079330  .00000793  00000+0  67903-4 0  9995
2 52580  53.2193 335.3492 0001560 105.8995 254.2169 15.08844960 95720
STARLINK-3915           
1 52581U 22051AX  24033.80650392  .00000574  00000+0  54183-4 0  9996
2 52581  53.2189 317.3094 0001708  96.9222 263.1964 15.08834001 96033
STARLINK-3886           
1 52582U 22051AY  24033.08522125  .00001615  00000+0  11956-3 0  9996
2 52582  53.2201 320.5386 0001855  82.1805 277.9398 15.08839717 95858
STARLINK-3895           
1 52583U 22051AZ  24033.80282423  .00000207  00000+0  31084-4 0  9992
2 52583  53.2189 317.3241 0001623  85.4609 274.6569 15.08836977 96039
STARLINK-3922           
1 52584U 22051BA  24033.81018222 -.00000775  00000+0 -30613-4 0  9997
2 52584  53.2199 317.2952 0001811  93.3847 266.7352 15.08843130 96031
STARLINK-3906           
1 52585U 22051BB  24033.79178308  .00005351  00000+0  35412-3 0  9991
2 52585  53.2172 317.3408 0001875  62.8010 297.3173 15.08833097 96035
STARLINK-3910           
1 52586U 22051BC  24033.79914311  .00001123  00000+0  88620-4 0  9997
2 52586  53.2177 317.3412 0001713  96.8181 263.3006 15.08839529 96037
STARLINK-3867           
1 52587U 22051BD  24033.77800055  .00001441  00000+0  10863-3 0  9991
2 52587  53.2186 317.2934 0001537  83.8073 276.3095 15.08841437 96039
STARLINK-3917           
1 52588U 22051BE  24033.78810247  .00000403  00000+0  43424-4 0  9994
2 52588  53.2187 317.3865 0001712  83.3159 276.8028 15.08838347 96037
STARLINK-4019           
1 52598U 22052A   24033.56132159  .00008711  00000+0  56511-3 0  9991
2 52598  53.2175 123.4009 0001751  73.8212 286.2973 15.08815247 95923
STARLINK-4024           
1 52599U 22052B   24033.61515479  .00007302  00000+0  47664-3 0  9992
2 52599  53.2186 118.2626 0001907  73.4805 286.6397 15.08822361 95570
STARLINK-4026           
1 52600U 22052C   24033.52681461  .00000864  00000+0  72364-4 0  9992
2 52600  53.2177 118.5549 0001485  98.0600 262.0561 15.08841711 95994
STARLINK-4027           
1 52601U 22052D   24033.60041283  .00001349  00000+0  10282-3 0  9993
2 52601  53.2169 118.2288 0001479 104.0801 256.0355 15.08842966 95578
STARLINK-4012           
1 52602U 22052E   24033.46425439 -.00000692  00000+0 -25377-4 0  9991
2 52602  53.2170 118.8363 0001566 115.1085 245.0070 15.08845515 95985
STARLINK-4016           
1 52603U 22052F   24033.45049349  .00000577  00000+0  54347-4 0  9992
2 52603  53.2174 118.9135 0001409  89.0726 271.0428 15.08835709 95985
STARLINK-4013           
1 52604U 22052G   24033.52313386  .00000686  00000+0  61181-4 0  9991
2 52604  53.2179 118.5749 0001860 124.3228 235.7941 15.08842221 95567
STARLINK-4000           
1 52605U 22052H   24033.53648387  .00000748  00000+0  65068-4 0  9992
2 52605  53.2172 123.2911 0001468  93.3926 266.7234 15.08841556 95490
STARLINK-3928           
1 52606U 22052J   24033.65193564  .00001267  00000+0  97690-4 0  9991
2 52606  53.2178 117.9932 0001664 113.1336 246.9832 15.08841719 95589
STARLINK-3947           
1 52607U 22052K   24033.48499260  .00003087  00000+0  21194-3 0  9992
2 52607  53.2168 123.7602 0002182 135.9656 224.1510 15.08842723 95106
STARLINK-3979           
1 52608U 22052L   24033.51209359  .00000972  00000+0  79138-4 0  9997
2 52608  53.2182 118.6190 0001667 108.4633 251.6540 15.08843715 95194
STARLINK-3997           
1 52609U 22052M   24033.50105076  .00001067  00000+0  85106-4 0  9996
2 52609  53.2184 118.6213 0002058  64.8883 295.2323 15.08844205 95198
STARLINK-3998           
1 52610U 22052N   24033.55395926  .00001222  00000+0  94832-4 0  9997
2 52610  53.2183 123.4430 0001664  71.6796 288.4377 15.08839581 95122
STARLINK-3980           
1 52611U 22052P   24033.48036176  .00001262  00000+0  97403-4 0  9990
2 52611  53.2195 123.7759 0001426 108.3491 251.7657 15.08835754 95110
STARLINK-4002           
1 52612U 22052Q   24033.50841763  .00000940  00000+0  77130-4 0  9997
2 52612  53.2185 118.6360 0001682  94.9511 265.1673 15.08841765 95192
STARLINK-3921           
1 52613U 22052R   24033.49092604  .00001508  00000+0  11277-3 0  9998
2 52613  53.2176 108.7186 0001523  99.8067 260.3097 15.08850176 95321
STARLINK-3982           
1 52614U 22052S   24033.49461260  .00000161  00000+0  28184-4 0  9997
2 52614  53.2176 108.7039 0001695 108.0232 252.0945 15.08844872 95322
STARLINK-4011           
1 52615U 22052T   24033.47667459  .00001144  00000+0  89969-4 0  9994
2 52615  53.2174 123.7826 0001540 101.4532 258.6633 15.08841274 95106
STARLINK-4015           
1 52616U 22052U   24033.61973301  .00000202  00000+0  30776-4 0  9993
2 52616  53.2184 108.1400 0001636 106.4911 253.6261 15.08843001 95714
STARLINK-3996           
1 52617U 22052V   24033.47989193  .00001043  00000+0  83634-4 0  9999
2 52617  53.2179 108.7648 0001743 105.3398 254.7787 15.08846466 95314
STARLINK-3983           
1 52618U 22052W   24033.61605297  .00001272  00000+0  97965-4 0  9992
2 52618  53.2175 108.1564 0001570  93.8348 266.2824 15.08844273 95714
STARLINK-3741           
1 52619U 22052X   24033.47621916  .00000582  00000+0  54640-4 0  9999
2 52619  53.2176 108.7789 0001594  79.4623 280.6548 15.08845816 95316
STARLINK-3975           
1 52620U 22052Y   24033.53922909  .00001208  00000+0  93974-4 0  9993
2 52620  53.2178 123.5045 0001511 106.7398 253.3760 15.08847269 95117
STARLINK-3984           
1 52621U 22052Z   24033.60132869  .00001238  00000+0  95851-4 0  9999
2 52621  53.2176 108.2234 0001584  98.6961 261.4211 15.08851718 95330
STARLINK-4008           
1 52622U 22052AA  24033.56867395  .00001563  00000+0  11628-3 0  9994
2 52622  53.2175 123.3733 0001758  71.2879 288.8304 15.08845896 95123
STARLINK-3986           
1 52623U 22052AB  24033.59765143  .00001076  00000+0  85643-4 0  9994
2 52623  53.2176 108.2383 0001545 101.9383 258.1783 15.08851010 95332
STARLINK-4009           
1 52624U 22052AC  24033.60597197  .00006609  00000+0  43292-3 0  9999
2 52624  53.2184 108.1799 0002254 121.0885 239.0328 15.08843327 95335
STARLINK-3988           
1 52625U 22052AD  24033.59398938 -.00001077  00000+0 -49568-4 0  9999
2 52625  53.2161 108.2580 0001395  97.5294 262.5857 15.08834346 95335
STARLINK-3990           
1 52626U 22052AE  24033.47253521  .00000594  00000+0  55434-4 0  9995
2 52626  53.2195 108.7981 0001836  87.6564 272.4638 15.08842978 95318
STARLINK-3992           
1 52627U 22052AF  24033.45045790  .00001030  00000+0  82800-4 0  9994
2 52627  53.2188 108.9074 0001565 107.3487 252.7677 15.08840542 95699
STARLINK-4001           
1 52628U 22052AG  24033.56499317 -.00000801  00000+0 -32230-4 0  9994
2 52628  53.2177 123.3819 0001564  82.3956 277.7214 15.08855696 95126
STARLINK-4022           
1 52629U 22052AH  24033.44309194  .00001342  00000+0  10237-3 0  9996
2 52629  53.2170 108.8973 0001592 109.9282 250.1881 15.08840868 95319
